JILIN-1 GAOFEN 3A       
1 44312U 19032C   26068.74542089  .00016264  00000+0  55381-3 0  9993
2 44312  44.9746 183.2861 0002618 111.2900 248.8263 15.30271310372592
STARLINK-32860          
1 62856U 25022C   26068.54191695  .00028769  00000+0  97989-3 0  9996
2 62856  53.1579 130.5728 0001109  78.3307 281.7818 15.30194069 61879
